[{"OBJECT_NAME":"ONEWEB-0113","OBJECT_ID":"2021-025J","EPOCH":"2025-10-12T07:14:46.485024","MEAN_MOTION":13.13980054,"ECCENTRICITY":0.00016591,"INCLINATION":87.9052,"RA_OF_ASC_NODE":9.4296,"ARG_OF_PERICENTER":95.7252,"MEAN_ANOMALY":264.4067,"EPHEMERIS_TYPE":0,"CLASSIFICATION_TYPE":"U","NORAD_CAT_ID":48050,"ELEMENT_SET_NO":999,"REV_AT_EPOCH":22105,"BSTAR":0.00079554842,"MEAN_MOTION_DOT":3.05e-6,"MEAN_MOTION_DDOT":0},{"OBJECT_NAME":"ONEWEB-0112","OBJECT_ID":"2021-025K","EPOCH":"2025-10-12T05:28:02.822880","MEAN_MOTION":13.13470649,"ECCENTRICITY":0.00017994,"INCLINATION":87.9053,"RA_OF_ASC_NODE":9.467,"ARG_OF_PERICENTER":97.9672,"MEAN_ANOMALY":262.1661,"EPHEMERIS_TYPE":0,"CLASSIFICATION_TYPE":"U","NORAD_CAT_ID":48051,"ELEMENT_SET_NO":999,"REV_AT_EPOCH":22104,"BSTAR":0.00087366118,"MEAN_MOTION_DOT":3.32e-6,"MEAN_MOTION_DDOT":0},{"OBJECT_NAME":"ONEWEB-0156","OBJECT_ID":"2021-025L","EPOCH":"2025-10-12T05:40:13.962144","MEAN_MOTION":13.13469495,"ECCENTRICITY":0.00019572,"INCLINATION":87.9055,"RA_OF_ASC_NODE":9.4772,"ARG_OF_PERICENTER":98.5158,"MEAN_ANOMALY":261.6193,"EPHEMERIS_TYPE":0,"CLASSIFICATION_TYPE":"U","NORAD_CAT_ID":48052,"ELEMENT_SET_NO":999,"REV_AT_EPOCH":22102,"BSTAR":0.00067438079,"MEAN_MOTION_DOT":2.59e-6,"MEAN_MOTION_DDOT":0},{"OBJECT_NAME":"ONEWEB-0161","OBJECT_ID":"2021-025M","EPOCH":"2025-10-12T06:53:21.328224","MEAN_MOTION":13.13469572,"ECCENTRICITY":0.0001972,"INCLINATION":87.9048,"RA_OF_ASC_NODE":9.4863,"ARG_OF_PERICENTER":98.5202,"MEAN_ANOMALY":261.6151,"EPHEMERIS_TYPE":0,"CLASSIFICATION_TYPE":"U","NORAD_CAT_ID":48053,"ELEMENT_SET_NO":999,"REV_AT_EPOCH":22096,"BSTAR":0.00014430481,"MEAN_MOTION_DOT":6.5e-7,"MEAN_MOTION_DDOT":0},{"OBJECT_NAME":"ONEWEB-0158","OBJECT_ID":"2021-025N","EPOCH":"2025-10-12T05:54:51.052608","MEAN_MOTION":13.13469257,"ECCENTRICITY":0.0001591,"INCLINATION":87.9059,"RA_OF_ASC_NODE":9.4748,"ARG_OF_PERICENTER":108.9411,"MEAN_ANOMALY":251.1891,"EPHEMERIS_TYPE":0,"CLASSIFICATION_TYPE":"U","NORAD_CAT_ID":48054,"ELEMENT_SET_NO":999,"REV_AT_EPOCH":22108,"BSTAR":0.00023335651,"MEAN_MOTION_DOT":9.8e-7,"MEAN_MOTION_DDOT":0},{"OBJECT_NAME":"ONEWEB-0157","OBJECT_ID":"2021-025P","EPOCH":"2025-10-12T06:31:24.734784","MEAN_MOTION":13.13469878,"ECCENTRICITY":0.00022255,"INCLINATION":87.9052,"RA_OF_ASC_NODE":9.4767,"ARG_OF_PERICENTER":100.3718,"MEAN_ANOMALY":259.7662,"EPHEMERIS_TYPE":0,"CLASSIFICATION_TYPE":"U","NORAD_CAT_ID":48055,"ELEMENT_SET_NO":999,"REV_AT_EPOCH":22102,"BSTAR":-0.00062786254,"MEAN_MOTION_DOT":-2.17e-6,"MEAN_MOTION_DDOT":0},{"OBJECT_NAME":"ONEWEB-0162","OBJECT_ID":"2021-025Q","EPOCH":"2025-10-12T07:46:47.633088","MEAN_MOTION":13.13469617,"ECCENTRICITY":0.00018468,"INCLINATION":87.9058,"RA_OF_ASC_NODE":9.4669,"ARG_OF_PERICENTER":99.8596,"MEAN_ANOMALY":260.2742,"EPHEMERIS_TYPE":0,"CLASSIFICATION_TYPE":"U","NORAD_CAT_ID":48056,"ELEMENT_SET_NO":999,"REV_AT_EPOCH":22100,"BSTAR":-1.8310454e-5,"MEAN_MOTION_DOT":6.0e-8,"MEAN_MOTION_DDOT":0},{"OBJECT_NAME":"ONEWEB-0155","OBJECT_ID":"2021-025R","EPOCH":"2025-10-12T06:07:02.133120","MEAN_MOTION":13.13469549,"ECCENTRICITY":0.0001966,"INCLINATION":87.9055,"RA_OF_ASC_NODE":9.4868,"ARG_OF_PERICENTER":105.3911,"MEAN_ANOMALY":254.7436,"EPHEMERIS_TYPE":0,"CLASSIFICATION_TYPE":"U","NORAD_CAT_ID":48057,"ELEMENT_SET_NO":999,"REV_AT_EPOCH":22113,"BSTAR":-0.00025026537,"MEAN_MOTION_DOT":-7.9e-7,"MEAN_MOTION_DDOT":0},{"OBJECT_NAME":"ONEWEB-0149","OBJECT_ID":"2021-025S","EPOCH":"2025-10-12T06:38:43.339200","MEAN_MOTION":13.13469718,"ECCENTRICITY":0.00017628,"INCLINATION":87.9051,"RA_OF_ASC_NODE":9.4767,"ARG_OF_PERICENTER":93.6376,"MEAN_ANOMALY":266.4955,"EPHEMERIS_TYPE":0,"CLASSIFICATION_TYPE":"U","NORAD_CAT_ID":48058,"ELEMENT_SET_NO":999,"REV_AT_EPOCH":22094,"BSTAR":-0.00069088029,"MEAN_MOTION_DOT":-2.4e-6,"MEAN_MOTION_DDOT":0},{"OBJECT_NAME":"ONEWEB-0148","OBJECT_ID":"2021-025T","EPOCH":"2025-10-12T07:34:47.139168","MEAN_MOTION":13.13470267,"ECCENTRICITY":0.00020955,"INCLINATION":87.9045,"RA_OF_ASC_NODE":9.4925,"ARG_OF_PERICENTER":84.3206,"MEAN_ANOMALY":275.8162,"EPHEMERIS_TYPE":0,"CLASSIFICATION_TYPE":"U","NORAD_CAT_ID":48059,"ELEMENT_SET_NO":999,"REV_AT_EPOCH":22107,"BSTAR":0.00026597711,"MEAN_MOTION_DOT":1.1e-6,"MEAN_MOTION_DDOT":0},{"OBJECT_NAME":"ONEWEB-0160","OBJECT_ID":"2021-025U","EPOCH":"2025-10-12T06:09:27.942624","MEAN_MOTION":13.13469631,"ECCENTRICITY":0.0001044,"INCLINATION":87.9048,"RA_OF_ASC_NODE":9.5015,"ARG_OF_PERICENTER":110.6615,"MEAN_ANOMALY":249.4626,"EPHEMERIS_TYPE":0,"CLASSIFICATION_TYPE":"U","NORAD_CAT_ID":48060,"ELEMENT_SET_NO":999,"REV_AT_EPOCH":22101,"BSTAR":-0.00042913562,"MEAN_MOTION_DOT":-1.44e-6,"MEAN_MOTION_DDOT":0},{"OBJECT_NAME":"ONEWEB-0163","OBJECT_ID":"2021-025V","EPOCH":"2025-10-12T05:47:32.942400","MEAN_MOTION":13.13473027,"ECCENTRICITY":0.00020807,"INCLINATION":87.9055,"RA_OF_ASC_NODE":9.4864,"ARG_OF_PERICENTER":102.1997,"MEAN_ANOMALY":257.9366,"EPHEMERIS_TYPE":0,"CLASSIFICATION_TYPE":"U","NORAD_CAT_ID":48061,"ELEMENT_SET_NO":999,"REV_AT_EPOCH":22113,"BSTAR":0.00047481415,"MEAN_MOTION_DOT":1.86e-6,"MEAN_MOTION_DDOT":0},{"OBJECT_NAME":"ONEWEB-0159","OBJECT_ID":"2021-025W","EPOCH":"2025-10-12T05:35:21.333120","MEAN_MOTION":13.13470599,"ECCENTRICITY":0.00020392,"INCLINATION":87.9057,"RA_OF_ASC_NODE":9.4709,"ARG_OF_PERICENTER":97.529,"MEAN_ANOMALY":262.6071,"EPHEMERIS_TYPE":0,"CLASSIFICATION_TYPE":"U","NORAD_CAT_ID":48062,"ELEMENT_SET_NO":999,"REV_AT_EPOCH":22105,"BSTAR":0.00094809356,"MEAN_MOTION_DOT":3.59e-6,"MEAN_MOTION_DDOT":0},{"OBJECT_NAME":"ONEWEB-0164","OBJECT_ID":"2021-025X","EPOCH":"2025-10-12T06:58:13.943424","MEAN_MOTION":13.13470773,"ECCENTRICITY":0.00017435,"INCLINATION":87.9052,"RA_OF_ASC_NODE":9.4677,"ARG_OF_PERICENTER":102.1206,"MEAN_ANOMALY":258.0118,"EPHEMERIS_TYPE":0,"CLASSIFICATION_TYPE":"U","NORAD_CAT_ID":48063,"ELEMENT_SET_NO":999,"REV_AT_EPOCH":22104,"BSTAR":0.00057566558,"MEAN_MOTION_DOT":2.23e-6,"MEAN_MOTION_DDOT":0},{"OBJECT_NAME":"ONEWEB-0167","OBJECT_ID":"2021-025Y","EPOCH":"2025-10-12T05:48:44.955072","MEAN_MOTION":13.13470767,"ECCENTRICITY":0.00023664,"INCLINATION":87.9045,"RA_OF_ASC_NODE":9.5095,"ARG_OF_PERICENTER":115.8758,"MEAN_ANOMALY":244.2615,"EPHEMERIS_TYPE":0,"CLASSIFICATION_TYPE":"U","NORAD_CAT_ID":48064,"ELEMENT_SET_NO":999,"REV_AT_EPOCH":22102,"BSTAR":0.00047040445,"MEAN_MOTION_DOT":1.85e-6,"MEAN_MOTION_DDOT":0},{"OBJECT_NAME":"ONEWEB-0166","OBJECT_ID":"2021-025Z","EPOCH":"2025-10-12T06:21:38.947104","MEAN_MOTION":13.13472364,"ECCENTRICITY":0.00018774,"INCLINATION":87.9055,"RA_OF_ASC_NODE":9.4568,"ARG_OF_PERICENTER":95.5104,"MEAN_ANOMALY":264.6239,"EPHEMERIS_TYPE":0,"CLASSIFICATION_TYPE":"U","NORAD_CAT_ID":48065,"ELEMENT_SET_NO":999,"REV_AT_EPOCH":22110,"BSTAR":-0.0007207453,"MEAN_MOTION_DOT":-2.5e-6,"MEAN_MOTION_DDOT":0},{"OBJECT_NAME":"ONEWEB-0151","OBJECT_ID":"2021-025AA","EPOCH":"2025-10-12T06:24:05.711328","MEAN_MOTION":13.13469632,"ECCENTRICITY":0.00018611,"INCLINATION":87.9054,"RA_OF_ASC_NODE":9.4818,"ARG_OF_PERICENTER":105.463,"MEAN_ANOMALY":254.6705,"EPHEMERIS_TYPE":0,"CLASSIFICATION_TYPE":"U","NORAD_CAT_ID":48066,"ELEMENT_SET_NO":999,"REV_AT_EPOCH":22104,"BSTAR":-0.00086012175,"MEAN_MOTION_DOT":-3.01e-6,"MEAN_MOTION_DDOT":0}]
