ONEWEB-0113             
1 48050U 21025J   25285.30192691  .00000305  00000+0  79555-3 0  9991
2 48050  87.9052   9.4296 0001659  95.7252 264.4067 13.13980054221054
ONEWEB-0112             
1 48051U 21025K   25285.22781045  .00000332  00000+0  87366-3 0  9999
2 48051  87.9053   9.4670 0001799  97.9672 262.1661 13.13470649221045
ONEWEB-0156             
1 48052U 21025L   25285.23627271  .00000259  00000+0  67438-3 0  9997
2 48052  87.9055   9.4772 0001957  98.5158 261.6193 13.13469495221022
ONEWEB-0161             
1 48053U 21025M   25285.28705241  .00000065  00000+0  14430-3 0  9996
2 48053  87.9048   9.4863 0001972  98.5202 261.6151 13.13469572220965
ONEWEB-0158             
1 48054U 21025N   25285.24642422  .00000098  00000+0  23336-3 0  9995
2 48054  87.9059   9.4748 0001591 108.9411 251.1891 13.13469257221084
ONEWEB-0157             
1 48055U 21025P   25285.27181406 -.00000217  00000+0 -62786-3 0  9996
2 48055  87.9052   9.4767 0002225 100.3718 259.7662 13.13469878221023
ONEWEB-0162             
1 48056U 21025Q   25285.32416242  .00000006  00000+0 -18310-4 0  9992
2 48056  87.9058   9.4669 0001846  99.8596 260.2742 13.13469617221000
ONEWEB-0155             
1 48057U 21025R   25285.25488580 -.00000079  00000+0 -25027-3 0  9992
2 48057  87.9055   9.4868 0001966 105.3911 254.7436 13.13469549221132
ONEWEB-0149             
1 48058U 21025S   25285.27689050 -.00000240  00000+0 -69088-3 0  9995
2 48058  87.9051   9.4767 0001762  93.6376 266.4955 13.13469718220947
ONEWEB-0148             
1 48059U 21025T   25285.31582337  .00000110  00000+0  26598-3 0  9994
2 48059  87.9045   9.4925 0002095  84.3206 275.8162 13.13470267221076
ONEWEB-0160             
1 48060U 21025U   25285.25657341 -.00000144  00000+0 -42914-3 0  9996
2 48060  87.9048   9.5015 0001044 110.6615 249.4626 13.13469631221011
ONEWEB-0163             
1 48061U 21025V   25285.24135350  .00000186  00000+0  47481-3 0  9995
2 48061  87.9055   9.4864 0002080 102.1997 257.9366 13.13473027221133
ONEWEB-0159             
1 48062U 21025W   25285.23288580  .00000359  00000+0  94809-3 0  9997
2 48062  87.9057   9.4709 0002039  97.5290 262.6071 13.13470599221059
ONEWEB-0164             
1 48063U 21025X   25285.29043916  .00000223  00000+0  57567-3 0  9996
2 48063  87.9052   9.4677 0001743 102.1206 258.0118 13.13470773221044
ONEWEB-0167             
1 48064U 21025Y   25285.24218698  .00000185  00000+0  47040-3 0  9995
2 48064  87.9045   9.5095 0002366 115.8758 244.2615 13.13470767221027
ONEWEB-0166             
1 48065U 21025Z   25285.26503411 -.00000250  00000+0 -72075-3 0  9999
2 48065  87.9055   9.4568 0001877  95.5104 264.6239 13.13472364221100
ONEWEB-0151             
1 48066U 21025AA  25285.26673277 -.00000301  00000+0 -86012-3 0  9991
2 48066  87.9054   9.4818 0001861 105.4630 254.6705 13.13469632221040
